CZ-4B R/B               
1 28059U 03049C   17292.18427123  .00000037  00000-0  20892-4 0  9994
2 28059  98.5428 180.4823 0049225 228.2838 283.5831 14.52502543741679
CZ-2C R/B               
1 28222U 04012C   17291.88812539  .00000725  00000-0  48100-4 0  9998
2 28222  97.5401 246.1583 0049543 120.6077 302.4472 15.09421151739270
SL-16 R/B               
1 28353U 04021B   17291.93032870  .00000165  00000-0  11133-3 0  9994
2 28353  71.0016 178.9544 0005273 346.8187  13.2797 14.14207246689643
CZ-2C R/B               
1 28480U 04046B   17291.92048956  .00000028  00000-0  26326-4 0  9992
2 28480  98.1953  20.1404 0141304 219.0327 273.2544 14.25652400671849
ARIANE 5 R/B            
1 28499U 04049H   17292.32594650  .00000105  00000-0  20405-4 0  9995
2 28499  98.0733  16.0263 0092613 173.9487 226.8600 14.79850845692352
CZ-2D R/B               
1 28738U 05024B   17292.28495528  .00000510  00000-0  34014-4 0  9995
2 28738  97.4850 326.6555 0010768 301.7053  58.3126 15.11308948674558
SUZAKU (ASTRO-EII)      
1 28773U 05025A   17291.91460265  .00001334  00000-0  63099-4 0  9994
2 28773  31.3822 213.9262 0004590 152.2249 207.8644 15.16116086676168
ALOS (DAICHI)           
1 28931U 06002A   17291.98320868  .00000207  00000-0  49526-4 0  9994
2 28931  97.8364 313.0983 0000817  54.2357 305.8922 14.62408309625550
H-2A R/B                
1 28932U 06002B   17292.21812256  .00000373  00000-0  41142-4 0  9999
2 28932  98.2091 220.1142 0088322 265.0986 227.4459 14.91516836636299
AKARI (ASTRO-F)         
1 28939U 06005A   17292.18907264  .00003200  00000-0  97459-4 0  9993
2 28939  98.2389 146.7433 0106052 115.8429 245.3792 15.29485979632062
RESURS-DK 1             
1 29228U 06021A   17292.29512008  .00000173  00000-0  20454-4 0  9990
2 29228  69.9341 142.3088 0004188 192.6520 167.4536 15.02226340626730
GENESIS 1               
1 29252U 06029A   17292.36215625  .00000936  00000-0  57096-4 0  9997
2 29252  64.5040 239.9028 0028031 317.0659  42.8275 15.16994411620668
CZ-4B R/B               
1 29507U 06046C   17291.93810890 -.00000475  00000-0 -31946-4 0  9992
2 29507  97.7853 299.6208 0051731 183.3344 176.7542 15.00152552599543
CZ-2C R/B               
1 31114U 07010B   17291.78449164 -.00000011  00000-0  14148-4 0  9996
2 31114  98.3844 187.7736 0058971 215.9619 143.7584 14.19254308545036
COSMO-SKYMED 1          
1 31598U 07023A   17292.32540801 -.00000202  00000-0 -18791-4 0  9998
2 31598  97.8881 114.2515 0001375  82.7276 277.4105 14.82153948560839
GENESIS 2               
1 31789U 07028A   17292.20295335  .00000787  00000-0  50762-4 0  9991
2 31789  64.5030 278.8090 0015292 215.7993 144.2105 15.16259815567702
COSMOS 2428             
1 31792U 07029A   17292.36290075  .00000363  00000-0  22268-3 0  9998
2 31792  70.9303 151.4726 0005998  98.0057 262.1744 14.12357404531604
SL-16 R/B               
1 31793U 07029B   17291.92815521 -.00000279  00000-0 -12076-3 0  9993
2 31793  70.9736 129.2437 0002879 277.9736 182.4520 14.14388818532178
CZ-4B DEB               
1 33411U 08053D   17292.18134994  .00252072  00000-0  97414-3 0  9994
2 33411  97.3842 348.2154 0004226 190.4519 169.6665 15.86610274495835
KORONAS-FOTON           
1 33504U 09003A   17291.95214778  .00000315  00000-0  15094-4 0  9992
2 33504  82.4398 109.9936 0020491  45.5560 314.7343 15.14966576480118
TIANGONG 1              
1 37820U 11053A   17292.32137731  .00032383  85160-5  11980-3 0  9994
2 37820  42.7557 155.5919 0020492 248.5645  91.3179 15.88368449347637
H-2A R/B                
1 38341U 12025E   17292.33580644  .00000260  00000-0  38045-4 0  9995
2 38341  98.4277  16.2508 0057031 118.5565 242.1403 14.83647455293284
CUSAT 2 & FALCON 9 R/B  
1 39271U 13055G   17291.89732838  .00005646  00000-0  14434-3 0  9994
2 39271  80.9694 226.0977 0625935 195.7670 162.3228 14.38873763210409
ALOS-2                  
1 39766U 14029A   17292.28887950 -.00000012  00000-0  53063-5 0  9991
2 39766  97.9225  27.8354 0001716  91.8021 268.3301 14.79472969183959
SL-27 R/B               
1 40354U 14084B   17292.37298611  .00001424  00000-0  37785-4 0  9996
2 40354  74.7396 236.7727 0040078 198.4877 161.4881 15.38537407158951
ASTRO-H (HITOMI)        
1 41337U 16012A   17291.76773700  .00000408  00000-0  26421-4 0  9996
2 41337  31.0064  55.6691 0012418 181.6839 178.3756 14.98374074 91473
TIANGONG-2              
1 41765U 16057A   17292.44301601  .00005467  00000-0  72381-4 0  9999
2 41765  42.7842 336.7192 0002853   0.0403 133.3098 15.59227078 62379
SHENZHOU-11 MODULE      
1 41868U 16061G   17291.56286979  .00010204  00000-0  93677-4 0  9996
2 41868  42.7961 331.8995 0005187 263.3230 221.6126 15.67826247 52292
TIANZHOU 1              
1 42684U 17021A   17264.10196765  .00025036  00000-0  31524-3 0  9994
2 42684  42.7846 145.1653 0002796 246.0577 114.0462 15.59122908 23989
